name,type,gradeRange,enrollment,gsRating,city,state,ncesId,zipcode,lat,lon
Olga L. Reed Elementary School,public,KG_8,200,4,Los Alamos,CA,62871002781,93440,34.739475,-120.27971
Old River Elementary,public,KG_6,268,5,Brentwood,CA,62004014006,94513,37.935673,-121.6205
Mary Casey Black Elementary,public,KG_5,721,4,Brentwood,CA,60591013420,94513,37.948437,-121.68767
Delta Vista Middle School,public,6_8,904,3,Oakley,CA,62808008689,94561,37.993626,-121.68954
Iron House Elementary School,public,KG_5,809,3,Oakley,CA,62808011575,94561,37.993042,-121.68955
Garin Elementary School,public,KG_5,653,7,Brentwood,CA,60591000536,94513,37.927776,-121.69031
Edna Hill Middle School,public,6_8,976,6,Brentwood,CA,60591000535,94513,37.931347,-121.69118
Liberty High School,public,9_12,2708,8,Brentwood,CA,62160002573,94513,37.9349,-121.6951
Gehringer Elementary School,public,KG_5,786,5,Oakley,CA,62808004326,94561,37.976086,-121.69874
Brentwood Elementary School,public,KG_5,764,6,Brentwood,CA,60591000534,94513,37.92842,-121.70678
Marsh Creek Elementary School,public,KG_5,732,7,Brentwood,CA,60591010754,94513,37.953945,-121.70729
O'hara Park Middle School,public,6_8,813,3,Oakley,CA,62808009966,94561,37.989193,-121.71395
William B. Bristow Middle School,public,6_8,1193,6,Brentwood,CA,60591004444,94513,37.937603,-121.71454
Freedom High School,public,9_12,2589,6,Oakley,CA,62160005726,94561,37.96908,-121.71575
Oakley Elementary School,public,KG_5,418,2,Oakley,CA,62808004327,94561,37.995068,-121.71617
Laurel Elementary School,public,KG_5,488,4,Oakley,CA,62808000186,94561,37.983196,-121.71741
Altamont Creek Elementary School,public,KG_5,585,6,Livermore,CA,62211008438,94551,37.72232,-121.71838
Vintage Parkway Elementary School,public,KG_5,534,3,Oakley,CA,62808000190,94561,38.004215,-121.71969
Almond Grove Elementary,public,KG_5,514,7,Oakley,CA,62808013786,94561,37.974834,-121.72528
Leo R. Croce Elementary School,public,KG_5,601,5,Livermore,CA,62211000052,94551,37.717068,-121.72833
Andrew N. Christensen Middle School,public,6_8,715,7,Livermore,CA,62211002618,94551,37.72649,-121.72852
Arroyo Seco Elementary School,public,KG_5,678,6,Livermore,CA,62211002620,94550,37.68367,-121.72854
Ron Nunn Elementary School,public,KG_5,650,7,Brentwood,CA,60591010194,94513,37.92952,-121.72943
Loma Vista Elementary School,public,KG_5,613,6,Brentwood,CA,60591008455,94513,37.939884,-121.73572
Pioneer Elementary School,public,KG_5,875,6,Brentwood,CA,60591010753,94513,37.955204,-121.73692
R. Paul Krey Elementary School,public,KG_5,859,7,Brentwood,CA,60591010474,94513,37.918568,-121.73836
Orchard Park School,public,KG_8,724,4,Oakley,CA,60285011904,94561,38.000057,-121.74155
Jackson Avenue Elementary School,public,KG_5,526,6,Livermore,CA,62211002627,94550,37.68492,-121.74262
East Avenue Middle School,public,6_8,649,5,Livermore,CA,62211002623,94550,37.67982,-121.75005
Heritage High School,public,9_12,2589,10,Brentwood,CA,62160010755,94513,37.92518,-121.75251
Carmen Dragon Elementary School,public,KG_6,450,2,Antioch,CA,60285010752,94531,37.968277,-121.75269
Adams (J. Douglas) Middle School,public,6_8,1129,7,Brentwood,CA,60591011574,94513,37.918976,-121.75556
Livermore High School,public,9_12,1878,8,Livermore,CA,62211002630,94550,37.680527,-121.76173
Ledesma (Rita) Elementary School,public,KG_6,494,7,San Jose,CA,62781008358,95138,37.24264,-121.76267
Tom Matsumoto Elementary School,public,KG_6,657,9,San Jose,CA,61314007788,95135,37.312016,-121.76502
Black Diamond Middle School,public,7_8,365,1,Antioch,CA,60285004440,94531,37.97057,-121.76672
Martin Murphy Middle School,public,6_8,742,6,San Jose,CA,62583003880,95139,37.225582,-121.76693
Junction Avenue K-8 School,public,KG_8,934,3,Livermore,CA,62211002622,94551,37.687023,-121.76704
Los Paseos Elementary School,public,KG_5,501,5,San Jose,CA,62583003878,95139,37.228985,-121.76739
Grant Elementary School,public,KG_6,442,2,Antioch,CA,60285007492,94531,37.985645,-121.76743
Chaboya Middle School,public,7_8,1094,8,San Jose,CA,61314010321,95135,37.312332,-121.768
Dozier-Libbey Medical High School,public,9_12,713,7,Antioch,CA,60285012278,94531,37.94807,-121.76817
Carolyn A. Clark Elementary School,public,KG_6,581,9,San Jose,CA,61314011451,95148,37.321712,-121.76937
Diablo Vista Elementary School,public,KG_5,483,3,Antioch,CA,60285008454,94531,37.957726,-121.7704
Lawrence Elementary,public,KG_5,357,8,Livermore,CA,62211014134,94551,37.690105,-121.77057
Sunset Elementary School,public,KG_5,771,9,Livermore,CA,62211002635,94550,37.66261,-121.77335
Silver Oak Elementary School,public,KG_6,607,9,San Jose,CA,61314004054,95138,37.28424,-121.77369
Jack London Elementary School,public,KG_6,507,3,Antioch,CA,60285000156,94531,37.97226,-121.7741
Evergreen Elementary School,public,KG_6,738,8,San Jose,CA,61314001492,95135,37.310524,-121.77793
Evergreen Valley High School,public,9_12,2961,9,San Jose,CA,61182010665,95148,37.3252,-121.77866
Deer Valley High School,public,9_12,1986,5,Antioch,CA,60285005724,94531,37.96573,-121.77968
Laurelwood Elementary School,public,KG_6,316,6,San Jose,CA,61314001497,95121,37.302517,-121.78003
Joe Michell K-8 School,public,KG_8,819,6,Livermore,CA,62211002628,94550,37.669567,-121.7835
Baldwin (Julia) Elementary School,public,KG_6,485,4,San Jose,CA,62781004204,95119,37.2241,-121.78423
Marylin Avenue Elementary School,public,KG_5,392,5,Livermore,CA,62211002631,94551,37.683865,-121.78603
Quimby Oak Middle School,public,7_8,980,7,San Jose,CA,61314001499,95148,37.324776,-121.78708
Cadwallader Elementary School,public,KG_6,341,7,San Jose,CA,61314001490,95121,37.306698,-121.78763
James Franklin Smith Elementary School,public,KG_6,642,9,San Jose,CA,61314008631,95121,37.297367,-121.78799
Millbrook Elementary School,public,KG_6,618,8,San Jose,CA,61314008836,95148,37.31949,-121.78805
Norwood Creek Elementary School,public,KG_6,625,7,San Jose,CA,61314007708,95148,37.328175,-121.78862
Granada High School,public,9_12,2282,9,Livermore,CA,62211002626,94550,37.675205,-121.78984
Bernal Intermediate School,public,7_8,742,6,San Jose,CA,62781004205,95119,37.22709,-121.79097
Lone Tree Elementary School,public,KG_5,588,3,Antioch,CA,60285011276,94531,37.956287,-121.79193
Valle Vista Elementary School,public,KG_5,349,3,San Jose,CA,62640003991,95148,37.33903,-121.79201
William Mendenhall Middle School,public,6_8,965,8,Livermore,CA,62211002636,94550,37.664505,-121.79221
Cedar Grove Elementary School,public,KG_6,590,5,San Jose,CA,61314001491,95148,37.331165,-121.79361
Muir (John) Elementary School,public,KG_5,570,2,Antioch,CA,60285009703,94509,37.976288,-121.79466
Santa Teresa Elementary School,public,KG_6,623,6,San Jose,CA,62781004223,95119,37.234753,-121.7959
Emma C. Smith Elementary School,public,KG_5,719,8,Livermore,CA,62211002624,94550,37.667168,-121.7964
Holly Oak Elementary School,public,KG_6,562,5,San Jose,CA,61314001494,95148,37.31875,-121.79765
Dallas Ranch Middle School,public,6_8,911,2,Antioch,CA,60285011275,94531,37.967182,-121.79861
Kimball Elementary School,public,KG_5,491,2,Antioch,CA,60285000212,94509,38.006878,-121.80084
John J. Montgomery Elementary School,public,KG_6,423,3,San Jose,CA,61314001495,95121,37.307735,-121.80108
Belshaw Elementary School,public,KG_5,549,1,Antioch,CA,60285000209,94509,37.99536,-121.80135
August Boeger Middle School,public,6_8,556,3,San Jose,CA,62640003987,95148,37.347153,-121.80143
Robert Sanders Elementary School,public,KG_5,419,2,San Jose,CA,62640003990,95127,37.351574,-121.80177
Edenvale Elementary School,public,KG_6,485,3,San Jose,CA,62781004212,95111,37.26157,-121.80265
Rancho Las Positas Elementary School,public,KG_5,599,6,Livermore,CA,62211002632,94551,37.688957,-121.80427
Stipe (Samuel) Elementary School,public,KG_6,423,3,San Jose,CA,62781004221,95111,37.27134,-121.80652
Taylor (Bertha) Elementary School,public,KG_6,683,6,San Jose,CA,62781004224,95123,37.231018,-121.80809
Silver Creek High School,public,9_12,2435,9,San Jose,CA,61182001309,95121,37.304333,-121.80831
Mt. Pleasant High School,public,9_12,1271,6,San Jose,CA,61182001304,95127,37.345646,-121.80948
Dove Hill Elementary School,public,KG_6,420,5,San Jose,CA,61314009366,95121,37.3011,-121.80983
Antioch Middle School,public,6_8,822,1,Antioch,CA,60285000208,94509,38.00545,-121.81003
Mount Pleasant Elementary School,public,KG_5,293,4,San Jose,CA,62640003989,95127,37.354084,-121.81104
Sutter Elementary School,public,KG_5,589,4,Antioch,CA,60285000217,94509,37.98557,-121.81191
Davis (Caroline) Intermediate School,public,7_8,596,4,San Jose,CA,62781004209,95111,37.266422,-121.81192
Anderson (Alex) Elementary School,public,KG_6,514,4,San Jose,CA,62781009413,95123,37.24674,-121.81194
Ramblewood Elementary School,public,KG_6,351,7,San Jose,CA,61437011452,95121,37.29512,-121.81202
Fremont Elementary School,public,KG_5,481,1,Antioch,CA,60285000211,94509,38.007393,-121.81252
George V. Leyva Intermediate School,public,7_8,733,4,San Jose,CA,61314001493,95122,37.31428,-121.81263
Adelante Dual Language Academy,public,KG_8,528,6,San Jose,CA,60231011793,95127,37.34457,-121.81271
Park Middle School,public,6_8,1108,2,Antioch,CA,60285000216,94509,37.993576,-121.81276
Horace Cureton Elementary School,public,KG_5,385,3,San Jose,CA,60231000102,95127,37.369354,-121.81422
Joseph George Middle School,public,6_8,539,3,San Jose,CA,60231000105,95127,37.371174,-121.81428
Marsh Elementary School,public,KG_5,615,1,Antioch,CA,60285000214,94509,37.999714,-121.81508
Christopher Elementary School,public,KG_8,375,5,San Jose,CA,62781004208,95111,37.27939,-121.81761
Antioch High School,public,9_12,2061,2,Antioch,CA,60285000207,94509,38.005116,-121.81786
Oak Grove High School,public,9_12,1766,6,San Jose,CA,61182001305,95123,37.251575,-121.81892
G. W. Hellyer Elementary School,public,KG_6,402,6,San Jose,CA,61437001645,95111,37.28444,-121.81964
Ocala Middle School,public,6_8,449,4,San Jose,CA,60231000116,95148,37.340385,-121.82046
Oak Ridge Elementary School,public,KG_6,570,6,San Jose,CA,62781004218,95123,37.24106,-121.82115
Katherine R. Smith Elementary School,public,KG_6,525,2,San Jose,CA,61314001496,95122,37.326252,-121.82206
Thomas P. Ryan Elementary School,public,KG_5,305,3,San Jose,CA,60231000120,95127,37.350063,-121.82257
Linda Vista Elementary School,public,KG_5,512,5,San Jose,CA,60231000108,95127,37.376934,-121.82372
O. B. Whaley Elementary School,public,KG_6,385,3,San Jose,CA,61314001498,95121,37.31619,-121.82424
Windmill Springs Elementary School,public,KG_8,440,4,San Jose,CA,61437008840,95121,37.306213,-121.82428
Lyndale Elementary School,public,KG_5,334,5,San Jose,CA,60231000109,95127,37.359745,-121.82492
Sylvandale Middle School,public,7_8,574,4,San Jose,CA,61437001653,95111,37.287865,-121.82531
Hayes Elementary School,public,KG_6,592,4,San Jose,CA,62781004215,95136,37.261806,-121.82651
Donald J. Meyer Elementary School,public,KG_5,369,5,San Jose,CA,60231000113,95122,37.335186,-121.82767
William C. Overfelt High School,public,9_12,1438,3,San Jose,CA,61182001306,95122,37.330593,-121.82838
Daniel Lairon Elementary School,public,4_8,383,3,San Jose,CA,61437001651,95111,37.28238,-121.82885
James Lick High School,public,9_12,1053,4,San Jose,CA,61182001303,95127,37.368046,-121.83009
Sylvia Cassell Elementary School,public,KG_5,389,3,San Jose,CA,60231000101,95122,37.344383,-121.83038
Santa Teresa High School,public,9_12,2145,9,San Jose,CA,61182001308,95123,37.235085,-121.8305
Renaissance Academy,public,6_8,308,5,San Jose,CA,60231011446,95122,37.33668,-121.83083
Clyde L. Fischer Middle School,public,6_8,289,2,San Jose,CA,60231000104,95122,37.33668,-121.83083
Los Arboles Elementary School,public,KG_3,353,2,San Jose,CA,61437001648,95111,37.285606,-121.83127
Mission Elementary School,public,KG_5,586,2,Antioch,CA,60285000215,94509,37.99734,-121.83152
Andrew P. Hill High School,public,9_12,1867,5,San Jose,CA,61182001301,95111,37.291924,-121.83173
Millard Mccollam Elementary School,public,KG_5,502,6,San Jose,CA,60231000112,95127,37.38047,-121.83312
Del Roble Elementary School,public,KG_6,556,4,San Jose,CA,62781004210,95123,37.25653,-121.83565
Anthony P. Russo Academy,public,KG_5,446,3,San Jose,CA,60231012063,95127,37.36876,-121.83568
Stonegate Elementary School,public,KG_8,681,5,San Jose,CA,61437001652,95121,37.308514,-121.83635
Frost (Earl) Elementary School,public,KG_8,638,6,San Jose,CA,62781004213,95123,37.247513,-121.83706
Graystone Elementary School,public,KG_5,571,9,San Jose,CA,63459005715,95120,37.210667,-121.83774
A. J. Dorsa Elementary School,public,KG_5,371,3,San Jose,CA,60231000103,95122,37.3391,-121.83791
Bret Harte Middle School,public,6_8,1189,8,San Jose,CA,63459005703,95120,37.20943,-121.83816
O. S. Hubbard Elementary School,public,KG_8,622,4,San Jose,CA,60231000107,95122,37.33123,-121.83826
Toyon Elementary School,public,KG_5,292,2,San Jose,CA,60480000468,95127,37.39139,-121.83827
Noble Elementary School,public,KG_5,456,8,San Jose,CA,60480000462,95132,37.3963,-121.8391
Sakamoto Elementary School,public,KG_6,639,6,San Jose,CA,62781004220,95123,37.230824,-121.83919
Herman (Leonard) Intermediate School,public,5_8,854,8,San Jose,CA,62781004216,95123,37.23974,-121.83975
Captain Jason M. Dahl Elementary School,public,KG_6,549,3,San Jose,CA,61437001646,95111,37.288155,-121.84003
Jeanne R. Meadows Elementary School,public,KG_6,501,6,San Jose,CA,61437009827,95122,37.321842,-121.8401
Adelante Dual Language Academy Ii,public,KG_3,172,2,San Jose,CA,60231014147,95116,37.344196,-121.84039
Clyde Arbuckle Elementary School,public,KG_5,223,1,San Jose,CA,60231000100,95116,37.344776,-121.84101
Piedmont Middle School,public,6_8,819,5,San Jose,CA,60480000464,95132,37.390728,-121.84264
William Sheppard Middle School,public,6_8,601,4,San Jose,CA,60231000122,95133,37.37451,-121.843
Ben Painter Elementary School,public,KG_8,334,5,San Jose,CA,60231008782,95133,37.37495,-121.84331
Renaissance At Mathson,public,6_8,278,4,San Jose,CA,60231013126,95116,37.350964,-121.84401
Lee Mathson Middle School,public,6_8,293,3,San Jose,CA,60231000110,95116,37.350826,-121.84408
Cesar Chavez Elementary School,public,KG_5,344,3,San Jose,CA,60231000111,95116,37.35024,-121.84497
J. M. Amador Elementary,public,KG_5,839,9,Dublin,CA,60001913862,94568,37.717297,-121.84565
Parkview Elementary School,public,KG_6,591,6,San Jose,CA,62781004219,95136,37.271595,-121.84578
Santee Elementary School,public,KG_6,423,2,San Jose,CA,61437001650,95122,37.32806,-121.84671
Leland High School,public,9_12,1917,9,San Jose,CA,63459005725,95120,37.220337,-121.84737
College Connection Academy,public,7_8,210,9,San Jose,CA,61437013199,95122,37.320114,-121.84751
Yerba Buena High School,public,9_12,1706,5,San Jose,CA,61182001310,95122,37.32079,-121.84831
Piedmont Hills High School,public,9_12,2058,9,San Jose,CA,61182001307,95132,37.40379,-121.84899
"Shirakawa (George, Sr.) Elementary School",public,KG_8,759,6,San Jose,CA,61437008352,95112,37.316086,-121.84974
Turner Elementary School,public,KG_5,506,2,Antioch,CA,60285000218,94509,38.003796,-121.85055
Williams Elementary School,public,KG_5,682,9,San Jose,CA,63459001538,95120,37.20822,-121.85092
Franklin Elementary School,public,KG_6,665,5,San Jose,CA,61437001644,95111,37.305454,-121.85107
Summerdale Elementary School,public,KG_5,403,7,San Jose,CA,60480000467,95132,37.389587,-121.85196
San Antonio Elementary School,public,KG_5,344,5,San Jose,CA,60231000121,95116,37.350025,-121.85234
Robert F. Kennedy Elementary School,public,KG_6,390,3,San Jose,CA,61437001647,95122,37.324997,-121.8524
Learning In An Urban Community With High Achievement (L.U.C.H.A.),public,KG_5,283,5,San Jose,CA,60231011445,95116,37.349968,-121.85246
Gunderson High School,public,9_12,1093,4,San Jose,CA,63459005716,95136,37.25824,-121.85269
Vintage Hills Elementary School,public,KG_5,629,9,Pleasanton,CA,60002009290,94566,37.655903,-121.85501
Rachel Carson Elementary School,public,KG_5,291,5,San Jose,CA,63459005706,95136,37.27048,-121.85548
Ruskin Elementary School,public,KG_5,568,7,San Jose,CA,60480000465,95132,37.400284,-121.85589
Sierramont Middle School,public,6_8,930,7,San Jose,CA,60480000466,95132,37.403133,-121.85593
Allen at Steinbeck School,public,KG_5,520,3,San Jose,CA,63459005697,95123,37.24728,-121.85641
Majestic Way Elementary School,public,KG_5,518,8,San Jose,CA,60480000460,95132,37.41065,-121.85723
Harold William Kolb,public,KG_5,735,9,Dublin,CA,60001912927,94568,37.71193,-121.8587
Independence High School,public,9_12,2872,7,San Jose,CA,61182001302,95133,37.367798,-121.85961
Henry P. Mohr Elementary School,public,KG_5,683,9,Pleasanton,CA,60002006951,94588,37.6925,-121.86011
McKinley Elementary School,public,KG_6,286,3,San Jose,CA,61437001649,95116,37.337475,-121.86086
John Green Elementary School,public,KG_5,859,10,Dublin,CA,60001912078,94568,37.7181,-121.8615
Valley View Elementary School,public,KG_5,651,6,Pleasanton,CA,60002009287,94566,37.659866,-121.86362
Anne Darling Elementary School,public,KG_5,376,2,San Jose,CA,63459005699,95133,37.356598,-121.86446
Cherrywood Elementary School,public,KG_5,425,6,San Jose,CA,60480000458,95132,37.3944,-121.86508
Liberty High (Alternative) School,public,6_12,334,2,San Jose,CA,63459006645,95123,37.261578,-121.86537
Eleanor Murray Fallon School,public,6_8,1557,9,Dublin,CA,60001913169,94568,37.71566,-121.86589
Selma Olinder Elementary School,public,KG_5,353,2,San Jose,CA,63459005730,95116,37.33834,-121.86659
Simonds Elementary School,public,KG_5,651,8,San Jose,CA,63459005738,95120,37.220493,-121.8684
Terrell Elementary School,public,KG_5,399,3,San Jose,CA,63459005740,95136,37.27084,-121.86841
Martin Luther King Jr. Junior High School,public,6_8,711,3,Pittsburg,CA,63060013016,94565,38.014313,-121.870056
Laneview Elementary School,public,KG_5,373,7,San Jose,CA,60480000459,95132,37.41456,-121.87069
Morrill Middle School,public,6_8,633,6,San Jose,CA,60480000461,95132,37.410217,-121.87111
San Jose High School,public,9_12,1054,3,San Jose,CA,63459005736,95116,37.350456,-121.87122
Stoneman Elementary School,public,KG_5,598,3,Pittsburg,CA,63060009995,94565,38.006603,-121.87132
Alisal Elementary School,public,KG_5,644,7,Pleasanton,CA,60002009285,94566,37.672367,-121.87207
Amador Valley High School,public,9_12,2713,9,Pleasanton,CA,60002009282,94566,37.668297,-121.87327
Vinci Park Elementary School,public,KG_5,564,8,San Jose,CA,60480000469,95131,37.380943,-121.87333
Fairlands Elementary School,public,KG_5,767,9,Pleasanton,CA,60002009286,94588,37.6926,-121.87433
Foothill Elementary School,public,KG_5,567,3,Pittsburg,CA,63060004746,94565,37.996002,-121.87525
Empire Gardens Elementary School,public,KG_5,291,3,San Jose,CA,63459005711,95112,37.35464,-121.87616
Canoas Elementary School,public,KG_5,261,5,San Jose,CA,63459008634,95125,37.28472,-121.87654
Lowell Elementary School,public,KG_5,286,2,San Jose,CA,63459005728,95112,37.32969,-121.87718
Tassajara Hills Elementary School,public,KG_5,492,9,Danville,CA,63513007082,94506,37.799404,-121.87887
Broadway High School,public,9_12,201,1,San Jose,CA,63459005709,95118,37.261112,-121.87934
Brooktree Elementary School,public,KG_5,461,6,San Jose,CA,60480000457,95131,37.398514,-121.88005
Los Alamitos Elementary School,public,KG_5,731,9,San Jose,CA,63459005727,95120,37.22786,-121.88099
Northwood Elementary School,public,KG_5,574,9,San Jose,CA,60480000463,95132,37.40946,-121.88134
Pittsburg Senior High School,public,9_12,3573,4,Pittsburg,CA,63060004752,94565,38.019547,-121.88137
Creekside Elementary School,public,KG_5,638,8,Danville,CA,63513012242,94506,37.79285,-121.88151
Pleasanton Middle School,public,6_8,1215,8,Pleasanton,CA,60002009682,94566,37.65696,-121.88156
Washington Elementary School,public,KG_5,446,4,San Jose,CA,63459005743,95110,37.321793,-121.88158
Castillero Middle School,public,6_8,1133,6,San Jose,CA,63459005707,95120,37.221497,-121.88191
John Muir Middle School,public,6_8,1064,5,San Jose,CA,63459005723,95118,37.261395,-121.88237
Harvest Park Middle School,public,6_8,1223,8,Pleasanton,CA,60002009289,94566,37.675556,-121.88268
Hacienda Science/Environmental Magnet School,public,KG_5,706,7,San Jose,CA,63459005742,95118,37.26967,-121.8839
Almaden Elementary School,public,KG_5,303,4,San Jose,CA,63459005698,95118,37.25093,-121.88411
Phoebe Apperson Hearst Elementary School,public,KG_5,705,8,Pleasanton,CA,60002008445,94566,37.65245,-121.88432
Pioneer High School,public,9_12,1600,7,San Jose,CA,63459005732,95118,37.247185,-121.88445
Horace Mann Elementary School,public,KG_5,402,3,San Jose,CA,63459005722,95112,37.33998,-121.88486
Sunol Glen Elementary School,public,KG_8,297,10,Sunol,CA,60002109291,94586,37.593597,-121.8851
James Dougherty Elementary School,public,KG_5,890,9,Dublin,CA,60001908443,94568,37.71039,-121.88512
Marina Vista Elementary School,public,KG_5,649,3,Pittsburg,CA,63060012268,94565,38.029514,-121.88524
Walnut Grove Elementary School,public,KG_5,749,9,Pleasanton,CA,60002009288,94566,37.673218,-121.88537
Hammer Montessori At Galarza Elementary School,public,KG_5,326,7,San Jose,CA,63459007429,95125,37.303524,-121.88686
Ernesto Galarza Elementary School,public,KG_5,397,2,San Jose,CA,63459010411,95125,37.303524,-121.88686
Highlands Elementary School,public,KG_5,517,3,Pittsburg,CA,63060004748,94565,37.99867,-121.88696
Schallenberger Elementary School,public,KG_5,570,5,San Jose,CA,63459005737,95125,37.280807,-121.88786
Hillview Junior High School,public,6_8,962,2,Pittsburg,CA,63060004749,94565,38.002377,-121.88838
Grant Elementary School,public,KG_5,473,2,San Jose,CA,63459005714,95112,37.35164,-121.88858
Hidden Hills Elementary School,public,KG_5,708,9,San Ramon,CA,63513010758,94582,37.76417,-121.89321
Reed Elementary School,public,KG_5,445,7,San Jose,CA,63459005734,95118,37.264637,-121.89461
Willow Glen Middle School,public,6_8,1225,5,San Jose,CA,63459005710,95125,37.291176,-121.89613
Live Oak Elementary School,public,KG_5,819,9,San Ramon,CA,63513011880,94582,37.7535,-121.8962
Willow Glen High School,public,9_12,1737,7,San Jose,CA,63459005746,95125,37.291588,-121.8964
Gardner Elementary School,public,KG_5,387,3,San Jose,CA,63459005713,95125,37.32139,-121.89641
Dartmouth Middle School,public,6_8,994,7,San Jose,CA,64032006671,95118,37.239597,-121.89671
Willow Glen Elementary School,public,KG_5,756,5,San Jose,CA,63459005745,95125,37.30321,-121.89687
Guadalupe Elementary School,public,KG_5,595,9,San Jose,CA,64032006672,95120,37.228767,-121.89693
Diablo Vista Middle School,public,6_8,986,10,Danville,CA,63513008460,94506,37.799664,-121.89742
Thomas S. Hart Middle School,public,6_8,1201,9,Pleasanton,CA,60002008444,94588,37.685425,-121.89828
River Glen School,public,KG_8,520,5,San Jose,CA,63459004084,95125,37.31213,-121.89924
Branham High School,public,9_12,1802,9,San Jose,CA,60723008350,95118,37.254578,-121.89957
Parkside Elementary School,public,KG_5,646,2,Pittsburg,CA,63060004751,94565,38.02292,-121.89965
Orchard Elementary School,public,KG_8,843,6,San Jose,CA,62868004460,95131,37.388462,-121.9002
Santa Clara County Special Education School,public,KG_12,1190,1,San Jose,CA,69103509250,95131,37.383717,-121.90026
Los Medanos Elementary School,public,KG_5,711,6,Pittsburg,CA,63060004750,94565,38.016487,-121.90046
County Community School,public,7_12,39,1,San Jose,CA,69103507782,95131,37.3837,-121.90134
Peter Burnett Middle School,public,6_8,687,3,San Jose,CA,63459005731,95112,37.35284,-121.90149
Dougherty Valley High School,public,9_12,3331,10,San Ramon,CA,63513011990,94582,37.767647,-121.90229
Lietz Elementary School,public,KG_5,596,7,San Jose,CA,64032006674,95118,37.243767,-121.90302
Windemere Ranch Middle School,public,6_8,1355,9,San Ramon,CA,63513010759,94582,37.75202,-121.90566
Booksin Elementary School,public,KG_5,839,8,San Jose,CA,63459005702,95125,37.28871,-121.90714
Donlon Elementary School,public,KG_5,758,8,Pleasanton,CA,60002009283,94588,37.684113,-121.90908
Gale Ranch Middle School,public,6_8,1262,9,San Ramon,CA,63513012300,94582,37.76919,-121.91042
Quail Run Elementary School,public,KG_5,949,9,San Ramon,CA,63513010760,94582,37.761467,-121.91166
Rancho Medanos Junior High School,public,6_8,902,4,Pittsburg,CA,63060004743,94565,38.015377,-121.91324
Noddin Elementary School,public,KG_5,625,7,San Jose,CA,64032006677,95124,37.237774,-121.91388
Wells Middle School,public,6_8,996,6,Dublin,CA,60001909278,94568,37.712563,-121.9188
Oster Elementary School,public,KG_5,657,8,San Jose,CA,64032006678,95124,37.25548,-121.91957
Foothill High School,public,9_12,2178,10,Pleasanton,CA,60002009279,94588,37.671577,-121.91994
Steindorf STEAM School,public,KG_8,502,9,San Jose,CA,60714013993,95124,37.26665,-121.92053
Valley High (Continuation) School,public,9_12,60,2,Dublin,CA,60001909274,94568,37.709167,-121.92118
Lydiksen Elementary School,public,KG_5,666,7,Pleasanton,CA,60002009284,94588,37.68099,-121.9216
Bagby Elementary School,public,KG_5,511,7,San Jose,CA,60714000650,95124,37.278713,-121.92193
Frederiksen Elementary School,public,KG_5,800,6,Dublin,CA,60001909275,94568,37.715076,-121.92195
Herbert Hoover Middle School,public,6_8,1082,3,San Jose,CA,63459005720,95126,37.332436,-121.92231
Leigh High School,public,9_12,1772,9,San Jose,CA,60723008122,95124,37.24331,-121.92258
Diablo View Middle School,public,6_8,688,7,Clayton,CA,62637001967,94517,37.932144,-121.92303
Abraham Lincoln High School,public,9_12,1805,5,San Jose,CA,63459005696,95126,37.329212,-121.92388
Merritt Trace Elementary School,public,KG_5,926,4,San Jose,CA,63459005741,95126,37.33091,-121.9258
Dublin High School,public,9_12,2978,9,Dublin,CA,60001909273,94568,37.720997,-121.92639
Luther Burbank Elementary School,public,KG_8,516,4,San Jose,CA,62313003530,95128,37.323555,-121.9267
Willow Cove Elementary School,public,KG_5,646,2,Pittsburg,CA,63060004753,94565,38.023106,-121.92675
Coyote Creek Elementary School,public,KG_5,920,9,San Ramon,CA,63513008461,94582,37.77812,-121.92806
Middle College High School,public,11_12,43,7,San Jose,CA,63459008633,95128,37.316364,-121.92985
Del Mar High School,public,9_12,1300,5,San Jose,CA,60723000665,95128,37.30326,-121.9303
Murray Elementary School,public,KG_5,615,7,Dublin,CA,60001909276,94568,37.72154,-121.93298
Union Middle School,public,6_8,1053,9,San Jose,CA,64032006680,95124,37.242737,-121.9344
Walt Disney Elementary School,public,KG_5,525,9,San Ramon,CA,63513005961,94583,37.741188,-121.93621
Dublin Elementary School,public,KG_5,878,7,Dublin,CA,60001906929,94568,37.715023,-121.9365
Bel Air Elementary School,public,KG_5,465,1,Bay Point,CA,62637003936,94565,38.01941,-121.93884
Country Club Elementary School,public,KG_5,552,8,San Ramon,CA,63513005945,94583,37.728138,-121.93992
Mt. Diablo Elementary School,public,KG_5,798,8,Clayton,CA,62637003959,94517,37.942566,-121.94018
Washington Elementary School,public,KG_5,331,9,Santa Clara,CA,63543006650,95050,37.34194,-121.94032
Golden View Elementary School,public,KG_5,668,9,San Ramon,CA,63513009631,94582,37.78704,-121.94305
Pine Valley Middle School,public,6_8,1049,9,San Ramon,CA,63513005955,94583,37.738777,-121.94351
Buchser Middle School,public,6_8,1011,5,Santa Clara,CA,63543007866,95050,37.344284,-121.94447
Don Callejon School,public,KG_8,912,6,Santa Clara,CA,63543011797,95054,37.39789,-121.94479
Sycamore Valley Elementary School,public,KG_5,573,10,Danville,CA,63513000289,94506,37.805824,-121.94494
Carlton Elementary School,public,KG_5,710,9,San Jose,CA,64032006669,95124,37.247604,-121.9459
Montague Elementary School,public,KG_5,426,4,Santa Clara,CA,63543006045,95054,37.389465,-121.94707
California High School,public,9_12,2777,9,San Ramon,CA,63513005943,94583,37.747295,-121.94758
Neil A. Armstrong Elementary School,public,KG_5,544,9,San Ramon,CA,63513005954,94583,37.740612,-121.9482
Montevideo Elementary School,public,KG_5,658,9,San Ramon,CA,63513005953,94583,37.754986,-121.95117
Pine Hollow Middle School,public,6_8,569,5,Concord,CA,62637003965,94521,37.94126,-121.95472
Wilson Alternative School,public,6_12,254,2,Santa Clara,CA,63543008984,95050,37.347034,-121.95527
Highlands Elementary School,public,KG_5,542,7,Concord,CA,62637003951,94521,37.94184,-121.95616
Iron Horse Middle School,public,6_8,1069,9,San Ramon,CA,63513005729,94583,37.770905,-121.95688
Scott Lane Elementary School,public,KG_5,368,4,Santa Clara,CA,63543006051,95050,37.356625,-121.95953
Ayers Elementary School,public,KG_5,422,6,Concord,CA,62637003934,94521,37.96622,-121.95995
Westwood Elementary School,public,KG_5,392,8,Santa Clara,CA,63543006054,95050,37.33413,-121.96064
Kathryn Hughes Elementary School,public,KG_5,407,5,Santa Clara,CA,63543006041,95054,37.40637,-121.9634
C. W. Haman Elementary School,public,KG_5,381,6,Santa Clara,CA,63543006040,95050,37.34346,-121.96471
Riverview Middle School,public,6_8,854,2,Bay Point,CA,62637003969,94565,38.033978,-121.96551
Boynton High School,public,9_12,209,2,San Jose,CA,60723000658,95117,37.312298,-121.96601
George C. Payne Elementary School,public,KG_5,581,7,San Jose,CA,62577003856,95130,37.29744,-121.96742
Delta View Elementary School,public,KG_5,657,4,Pittsburg,CA,62637010756,94565,38.011265,-121.96773
Bollinger Canyon Elementary School,public,KG_5,518,9,San Ramon,CA,63513007356,94583,37.760624,-121.97025
Shore Acres Elementary School,public,KG_5,445,1,Bay Point,CA,62637003972,94565,38.03619,-121.97037
Juan Cabrillo Middle School,public,6_8,908,6,Santa Clara,CA,63543001599,95051,37.359318,-121.97077
Leroy Anderson Elementary School,public,KG_5,386,5,San Jose,CA,62577003860,95117,37.30466,-121.9715
Silverwood Elementary School,public,KG_5,505,7,Concord,CA,62637003973,94521,37.962574,-121.9717
Greenbrook Elementary School,public,KG_5,630,10,Danville,CA,63513005948,94526,37.792137,-121.97378
Rio Vista Elementary School,public,KG_5,502,3,Bay Point,CA,62637009406,94565,38.033974,-121.97471
Bracher Elementary School,public,KG_5,344,6,Santa Clara,CA,63543006034,95051,37.367565,-121.97521
Millikin Elementary School,public,KG_5,523,9,Santa Clara,CA,63543006044,95051,37.3326,-121.97617
Bowers Elementary School,public,KG_5,282,4,Santa Clara,CA,63543006033,95051,37.357246,-121.97624
Central Park Elementary,public,KG_4,399,8,Santa Clara,CA,63543013982,95051,37.34545,-121.976456
Charlotte Wood Middle School,public,6_8,978,9,Danville,CA,63513005944,94526,37.800816,-121.9769
Bella Vista Elementary,public,KG_5,493,7,San Ramon,CA,63513013980,94582,37.779926,-121.97801
Latimer Elementary School,public,KG_8,554,6,San Jose,CA,62577013806,95130,37.292393,-121.97803
Mountain View Elementary School,public,KG_5,345,4,Concord,CA,62637003958,94521,37.968662,-121.98032
Green Valley Elementary School,public,KG_5,490,9,Danville,CA,63513005947,94526,37.833687,-121.9805
Los Cerros Middle School,public,6_8,645,9,Danville,CA,63513005950,94526,37.837696,-121.98109
Mission Early College High,public,10_12,101,8,Santa Clara,CA,63543014067,95054,37.391216,-121.98204
Monte Vista High School,public,9_12,2448,10,Danville,CA,63513005952,94526,37.844788,-121.98231
Santa Clara High School,public,9_12,1967,7,Santa Clara,CA,63543007868,95051,37.346527,-121.98306
Moreland Middle School,public,6_8,944,7,San Jose,CA,62577003855,95130,37.29019,-121.98411
John Baldwin Elementary School,public,KG_5,515,10,Danville,CA,63513005949,94526,37.80769,-121.98445
Adrian Wilcox High School,public,9_12,1961,7,Santa Clara,CA,63543006055,95051,37.366875,-121.98578
Twin Creeks Elementary School,public,KG_5,557,8,San Ramon,CA,63513005959,94583,37.76761,-121.98591
Easterbrook Discovery,public,KG_8,950,8,San Jose,CA,62577003854,95129,37.3034,-121.98663
Pomeroy Elementary School,public,KG_5,421,4,Santa Clara,CA,63543006048,95051,37.348415,-121.98687
Briarwood Elementary School,public,KG_5,319,6,Santa Clara,CA,63543006036,95051,37.35835,-121.98695
Gussie M. Baker Elementary School,public,KG_5,666,8,San Jose,CA,62577003857,95130,37.283417,-121.98712
Vista Grande Elementary School,public,KG_5,623,8,Danville,CA,63513005960,94526,37.82546,-121.98725
Sutter Elementary School,public,KG_5,456,7,Santa Clara,CA,63543006052,95051,37.33464,-121.98728
Concord High School,public,9_12,1385,6,Concord,CA,62637003942,94521,37.976475,-121.9886
Dwight D. Eisenhower Elementary School,public,KG_5,574,7,Santa Clara,CA,61029001132,95051,37.32918,-121.98939
Manuel De Vargas Elementary School,public,KG_5,519,7,San Jose,CA,61029001128,95129,37.310596,-121.99102
Fairwood Elementary School,public,KG_5,435,6,Sunnyvale,CA,63846007433,94089,37.396126,-121.99127
Westwood Elementary School,public,KG_5,312,2,Concord,CA,62637003981,94521,37.976734,-121.99182
Country Lane Elementary School,public,KG_5,613,8,San Jose,CA,62577003853,95129,37.298473,-121.99193
El Dorado Middle School,public,6_8,882,2,Concord,CA,62637003944,94521,37.976025,-121.99258
New Valley Continuation High School,public,9_12,127,2,Santa Clara,CA,63543006053,95051,37.35689,-121.99573
Murdock-Portal Elementary School,public,KG_5,570,9,San Jose,CA,61029005406,95129,37.30381,-121.99952
Laurelwood Elementary School,public,KG_5,644,8,Santa Clara,CA,63543006042,95051,37.342896,-122.00238
Lakewood Elementary School,public,KG_5,437,4,Sunnyvale,CA,63846006463,94089,37.398365,-122.00335
Montair Elementary School,public,KG_5,556,10,Danville,CA,63513005951,94526,37.818733,-122.00394
Monte Gardens Elementary School,public,KG_5,518,8,Concord,CA,62637003957,94519,37.988216,-122.00524
San Ramon Valley High School,public,9_12,2094,10,Danville,CA,63513005957,94526,37.826714,-122.00532
Lynbrook High School,public,9_12,1880,10,San Jose,CA,61443001698,95129,37.300713,-122.00647
Nelson S. Dilworth Elementary School,public,KG_5,435,9,San Jose,CA,61029001129,95129,37.30629,-122.00688
Northgate High School,public,9_12,1490,10,Walnut Creek,CA,62637003961,94598,37.910095,-122.00698
San Miguel Elementary School,public,KG_5,403,4,Sunnyvale,CA,63846004088,94085,37.39195,-122.00801
Marian A. Peterson Middle School,public,6_8,908,7,Sunnyvale,CA,63543007867,94087,37.350304,-122.00894
Ponderosa Elementary School,public,KG_5,590,7,Sunnyvale,CA,63543006049,94086,37.362335,-122.0096
Joaquin Miller Middle School,public,6_8,1191,9,San Jose,CA,61029001142,95129,37.301254,-122.0121
El Monte Elementary School,public,KG_5,433,3,Concord,CA,62637003945,94518,37.968483,-122.01259
Valle Verde Elementary School,public,KG_5,466,8,Walnut Creek,CA,62637003978,94598,37.934296,-122.0149
Guy Jr. Emanuele Elementary School,public,KG_5,569,5,Union City,CA,62691007481,94587,37.602016,-122.01595
Foothill Middle School,public,6_8,974,9,Walnut Creek,CA,62637003947,94598,37.920326,-122.01627
Wren Avenue Elementary School,public,KG_5,336,3,Concord,CA,62637003984,94519,37.980244,-122.01636
Woodside Elementary School,public,KG_5,354,6,Concord,CA,62637003983,94518,37.940376,-122.01756
Braly Elementary School,public,KG_5,391,6,Sunnyvale,CA,63543001588,94086,37.36352,-122.01792
Columbia Middle School,public,6_8,790,3,Sunnyvale,CA,63846006464,94085,37.392517,-122.01908
John Muir Elementary School,public,KG_5,354,9,San Jose,CA,61029001144,95129,37.300407,-122.01946
Stone Valley Middle School,public,6_8,591,10,Alamo,CA,63513005958,94507,37.85726,-122.01954
Walnut Acres Elementary School,public,KG_5,634,8,Walnut Creek,CA,62637003980,94598,37.917637,-122.02031
Stonebrae Elementary School,public,KG_6,745,4,Hayward,CA,61674011550,94542,37.65473,-122.02047
Heights Elementary School,public,KG_5,615,3,Pittsburg,CA,63060004747,94565,37.984035,-122.02181
Ygnacio Valley High School,public,9_12,1220,4,Concord,CA,62637003986,94518,37.936672,-122.02325
Ellis Elementary School,public,KG_5,787,6,Sunnyvale,CA,63846006460,94086,37.36987,-122.02371
Bishop Elementary School,public,KG_5,475,4,Sunnyvale,CA,63846006456,94085,37.386505,-122.0241
Palomares Elementary School,public,KG_5,143,9,Castro Valley,CA,60780000747,94552,37.695583,-122.0248
James Logan high school,public,9_12,3635,8,Union City,CA,62691004072,94587,37.592495,-122.02604
Louis E. Stocklmeir Elementary School,public,KG_5,1106,9,Sunnyvale,CA,61029001153,94087,37.344803,-122.02646
R. I. Meyerholz Elementary School,public,KG_5,776,9,San Jose,CA,61029001141,95129,37.307095,-122.02658
Holbrook Language Academy,public,KG_5,276,3,Concord,CA,62637003953,94519,37.993324,-122.02699
Searles Elementary School,public,KG_5,662,4,Union City,CA,62691004074,94587,37.59606,-122.02717
Rancho Romero Elementary School,public,KG_5,478,10,Alamo,CA,63513005956,94507,37.839924,-122.0279
Ygnacio Valley Elementary School,public,KG_5,433,2,Concord,CA,62637003985,94518,37.950184,-122.0283
Sun Terrace Elementary School,public,KG_5,456,2,Concord,CA,62637003975,94520,38.000202,-122.03012
Alamo Elementary School,public,KG_5,359,9,Alamo,CA,63513005942,94507,37.867493,-122.03093
Jensen Ranch Elementary School,public,KG_5,424,10,Castro Valley,CA,60780004339,94552,37.713123,-122.03122
Indian Valley Elementary School,public,KG_5,395,8,Walnut Creek,CA,64125006828,94598,37.90152,-122.03196
Fremont High School,public,9_12,2081,8,Sunnyvale,CA,61443001696,94087,37.35253,-122.03249
Oak Grove Middle School,public,6_8,789,1,Concord,CA,62637003962,94518,37.93985,-122.03497
Chester W. Nimitz Elementary School,public,KG_5,628,6,Sunnyvale,CA,61029001146,94087,37.34674,-122.03575
Hillview Crest Elementary School,public,KG_5,513,3,Hayward,CA,62691004071,94544,37.61436,-122.03627
Treeview Elementary,public,KG_6,461,2,Hayward,CA,61674002136,94544,37.624165,-122.03657
Bancroft Elementary School,public,KG_5,645,7,Walnut Creek,CA,62637003935,94598,37.92909,-122.03673
Mt. Diablo High School,public,9_12,1448,2,Concord,CA,62637003960,94520,37.982655,-122.03674
Walnut Heights Elementary School,public,KG_5,387,10,Walnut Creek,CA,64125006832,94596,37.894146,-122.0378
Meadow Homes Elementary School,public,KG_5,825,2,Concord,CA,62637003956,94520,37.965927,-122.03887
Cumberland Elementary School,public,KG_5,806,9,Sunnyvale,CA,63846006459,94087,37.36742,-122.04312
Cambridge Elementary School,public,KG_5,583,1,Concord,CA,62637002932,94520,37.954807,-122.04456
Murwood Elementary School,public,KG_5,366,6,Walnut Creek,CA,64125006829,94596,37.88365,-122.04656
Cesar Chavez Middle School,public,6_8,1210,3,Union City,CA,62691004073,94587,37.59019,-122.04735
Vargas Elementary School,public,KG_5,484,4,Sunnyvale,CA,63846002796,94086,37.381565,-122.04785
Independent Elementary School,public,KG_5,626,8,Castro Valley,CA,60780009342,94552,37.69911,-122.04975
Tom Kitayama Elementary School,public,KG_5,776,7,Union City,CA,62691007480,94587,37.601467,-122.04979
Fair Oaks Elementary School,public,KG_5,334,2,Pleasant Hill,CA,62637003946,94523,37.944084,-122.05058
Fairview Elementary School,public,KG_6,549,4,Hayward,CA,61674002113,94541,37.680798,-122.05205
Sunnyvale Middle School,public,6_8,1211,6,Sunnyvale,CA,63846006465,94087,37.36022,-122.05401
Canyon Middle School,public,6_8,1391,7,Castro Valley,CA,60780000740,94552,37.705772,-122.05426
East Avenue Elementary School,public,KG_6,568,4,Hayward,CA,61674002109,94541,37.67083,-122.0543
Walnut Creek Intermediate School,public,6_8,1049,8,Walnut Creek,CA,64125006831,94597,37.90965,-122.05515
Cherry Chase Elementary School,public,KG_5,835,9,Sunnyvale,CA,63846006458,94087,37.367023,-122.05695
Las Lomas High School,public,9_12,1601,9,Walnut Creek,CA,60165000035,94596,37.89014,-122.05741
Vannoy Elementary School,public,KG_5,436,8,Castro Valley,CA,60780000752,94546,37.706635,-122.05868
Cupertino Middle School,public,6_8,1358,8,Sunnyvale,CA,61029001127,94087,37.34013,-122.05942
West Valley Elementary School,public,KG_5,554,9,Sunnyvale,CA,61029001154,94087,37.339924,-122.06077
Creekside Middle School,public,6_8,781,8,Castro Valley,CA,60780006909,94546,37.699924,-122.06124
Bowman Elementary School,public,KG_6,301,2,Hayward,CA,61674002104,94544,37.641373,-122.06231
Cesar Chavez Middle School,public,7_8,554,2,Hayward,CA,61674002118,94544,37.63698,-122.06277
Marshall Elementary School,public,KG_5,490,8,Castro Valley,CA,60780000746,94546,37.697796,-122.06573
Tennyson High School,public,9_12,1423,2,Hayward,CA,61674002135,94544,37.642548,-122.06596
Tice Creek,public,KG_8,427,9,Walnut Creek,CA,64125013866,94595,37.88851,-122.06648
Gregory Gardens Elementary School,public,KG_5,415,4,Pleasant Hill,CA,62637002956,94523,37.959934,-122.06683
Sequoia Elementary School,public,KG_5,571,8,Pleasant Hill,CA,62637007319,94523,37.94348,-122.0669
Sequoia Middle School,public,6_8,931,7,Pleasant Hill,CA,62637008916,94523,37.94348,-122.06793
Pleasant Hill Middle School,public,6_8,847,5,Pleasant Hill,CA,62637007076,94503,37.935715,-122.06812
Parkmead Elementary School,public,KG_5,423,6,Walnut Creek,CA,64125009461,94595,37.887444,-122.0686
Mountain View High School,public,9_12,2062,9,Mountain View,CA,62631003930,94040,37.358192,-122.06863
Buena Vista Elementary School,public,KG_5,462,7,Walnut Creek,CA,64125006827,94597,37.912758,-122.06909
Hayward High School,public,9_12,1637,4,Hayward,CA,61674002116,94541,37.672676,-122.06992
Edith Landels Elementary School,public,KG_5,491,8,Mountain View,CA,62628003926,94041,37.388744,-122.07055
Oak Avenue Elementary School,public,KG_6,387,9,Los Altos,CA,62265002788,94024,37.3568,-122.07143
Pioneer Elementary School,public,KG_5,750,6,Union City,CA,62691007795,94587,37.572075,-122.07167
College Park High School,public,9_12,2036,8,Pleasant Hill,CA,62637003941,94523,37.96587,-122.07185
Valley View Middle School,public,6_8,815,6,Pleasant Hill,CA,62637003979,94523,37.96587,-122.07186
Harder Elementary School,public,KG_6,569,1,Hayward,CA,61674002115,94544,37.651512,-122.07237
Ruus Elementary School,public,KG_6,486,3,Hayward,CA,61674002129,94540,37.627365,-122.07363
Proctor Elementary School,public,KG_5,511,9,Castro Valley,CA,60780000749,94546,37.716743,-122.07366
Faith Ringgold School of Arts and Science,public,KG_8,132,2,Hayward,CA,61674005622,94541,37.67627,-122.07396
Acalanes Center For Independent Study,public,9_12,27,4,Walnut Creek,CA,60165010751,94595,37.877663,-122.07422
Frank L. Huff Elementary School,public,KG_5,610,9,Mountain View,CA,62628007791,94040,37.375267,-122.07434
Delaine Eastin Elementary School,public,KG_5,765,8,Union City,CA,62691008675,94587,37.566837,-122.07483
Tyrrell Elementary School,public,KG_6,675,3,Hayward,CA,61674008146,94540,37.6374,-122.07543
Strandwood Elementary School,public,KG_5,622,7,Pleasant Hill,CA,62637003974,94523,37.95024,-122.07585
Alvarado Elementary School,public,KG_5,726,7,Union City,CA,62691004065,94587,37.595623,-122.07693
Castro Valley High School,public,9_12,2834,9,Castro Valley,CA,60780000742,94546,37.705185,-122.07847
Bret Harte Middle School,public,7_8,605,3,Hayward,CA,61674002105,94540,37.670265,-122.07899
Alvarado Middle School,public,6_8,1396,5,Union City,CA,62691004066,94587,37.591747,-122.08036
Valhalla Elementary School,public,KG_5,569,9,Pleasant Hill,CA,62637003977,94523,37.966595,-122.08077
Glassbrook Elementary School,public,KG_6,515,2,Hayward,CA,61674002114,94544,37.64094,-122.08084
Castro Valley Elementary School,public,KG_5,506,7,Castro Valley,CA,60780000741,94546,37.698048,-122.08102
Benjamin Bubb Elementary School,public,KG_5,575,8,Mountain View,CA,62628003922,94040,37.379143,-122.08176
Montclaire Elementary School,public,KG_5,428,9,Los Altos,CA,61029001143,94024,37.34286,-122.08214
Pleasant Hill Elementary School,public,KG_5,618,6,Pleasant Hill,CA,62637003967,94523,37.93365,-122.08259
Stevenson Elementary School,public,KG_5,427,9,Mountain View,CA,62628012540,94043,37.404724,-122.08277
Georgina P. Blach Junior High School,public,7_8,499,10,Los Altos,CA,62265002783,94024,37.364574,-122.08286
Theuerkauf Elementary School,public,KG_5,355,7,Mountain View,CA,62628006933,94043,37.405888,-122.08497
Palma Ceia Elementary School,public,KG_6,551,4,Hayward,CA,61674002126,94545,37.627193,-122.08525
Eldridge Elementary School,public,KG_6,378,5,Hayward,CA,61674002111,94544,37.63684,-122.0853
Crittenden Middle School,public,6_8,707,6,Mountain View,CA,62628006931,94043,37.412212,-122.08588
Isaac Newton Graham Middle School,public,6_8,865,7,Mountain View,CA,62628003924,94040,37.381794,-122.086
Schafer Park Elementary School,public,KG_6,778,5,Hayward,CA,61674002130,94544,37.642918,-122.08734
Strobridge Elementary School,public,KG_6,492,1,Castro Valley,CA,61674008855,94546,37.68749,-122.08746
Hidden Valley Elementary School,public,KG_5,835,5,Martinez,CA,62637003950,94553,37.98253,-122.08815
Chabot Elementary School,public,KG_5,464,8,Castro Valley,CA,60780007661,94546,37.707085,-122.09012
Mount Eden High School,public,9_12,1979,6,Hayward,CA,61674002124,94545,37.625313,-122.09056
Winton Middle School,public,7_8,505,3,Hayward,CA,61674002137,94540,37.660347,-122.09095
"Martin Luther King, Jr. Middle School",public,7_8,757,6,Hayward,CA,61674002107,94545,37.63588,-122.09128
Burton Valley Elementary School,public,KG_5,798,10,Lafayette,CA,62031002446,94549,37.863434,-122.09233
Loyola Elementary School,public,KG_6,404,9,Los Altos,CA,62265002787,94024,37.361366,-122.09337
Las Juntas Elementary School,public,KG_5,355,3,Martinez,CA,62403003615,94553,38.007484,-122.09343
Stanton Elementary School,public,KG_5,493,6,Castro Valley,CA,60780009525,94546,37.69991,-122.09352
Springer Elementary School,public,KG_6,468,9,Mountain View,CA,62265002790,94040,37.37101,-122.09402
Park Elementary School,public,KG_6,532,3,Hayward,CA,61674002127,94540,37.652935,-122.09406
Gabriela Mistral Elementary,public,KG_5,373,8,Mountain View,CA,62628013928,94040,37.394897,-122.09414
Burbank Elementary School,public,KG_6,867,4,Hayward,CA,61674002106,94541,37.667927,-122.09427
Southgate Elementary School,public,KG_6,677,8,Hayward,CA,61674002132,94545,37.63905,-122.09444
Mariano Castro Elementary School,public,KG_5,268,5,Mountain View,CA,62628003923,94040,37.39532,-122.095
Monta Loma Elementary School,public,KG_5,425,6,Mountain View,CA,62628006932,94043,37.408195,-122.09807
Cherryland Elementary School,public,KG_6,746,2,Hayward,CA,61674002108,94541,37.676224,-122.09864
Brenkwitz High School,public,9_12,161,1,Hayward,CA,61674002123,94541,37.671955,-122.09895
Acalanes High School,public,9_12,1335,10,Lafayette,CA,60165000032,94549,37.904312,-122.09906
Morello Park Elementary School,public,KG_5,514,8,Martinez,CA,62403000178,94553,38.000797,-122.09928
Lorin A. Eden Elementary School,public,KG_6,385,3,Hayward,CA,61674002121,94545,37.62416,-122.10008
Almond Elementary School,public,KG_6,488,8,Los Altos,CA,62265002782,94022,37.384953,-122.10179
Springhill Elementary School,public,KG_5,454,9,Lafayette,CA,62031002450,94549,37.90876,-122.10248
Eden Gardens Elementary School,public,KG_6,552,3,Hayward,CA,61674002110,94545,37.638077,-122.10721
Covington Elementary School,public,KG_6,585,9,Los Altos,CA,62265011202,94024,37.370625,-122.10778
Los Altos High School,public,9_12,2227,9,Los Altos,CA,62631003929,94022,37.38499,-122.10918
Anthony W. Ochoa Middle School,public,7_8,588,4,Hayward,CA,61674009847,94545,37.638836,-122.10968
Longwood Elementary School,public,KG_6,651,2,Hayward,CA,61674002120,94541,37.659054,-122.1101
M. H. Stanley Middle School,public,6_8,1227,10,Lafayette,CA,62031002449,94549,37.887417,-122.11318
Herbert Hoover Elementary School,public,KG_5,395,9,Palo Alto,CA,62961004581,94306,37.418278,-122.11344
Palo Verde Elementary School,public,KG_5,393,9,Palo Alto,CA,62961004597,94303,37.431404,-122.11369
East Bay Arts High School,public,9_12,214,5,Hayward,CA,63471011567,94541,37.668976,-122.11506
Colonial Acres Elementary School,public,KG_5,564,2,Hayward,CA,63471005847,94541,37.683563,-122.11616
Ardis G. Egan Junior High School,public,7_8,585,8,Los Altos,CA,62265002786,94022,37.396782,-122.11629
Hillside Elementary School,public,KG_5,458,1,San Leandro,CA,63471005853,94578,37.701828,-122.11702
Lafayette Elementary School,public,KG_5,538,10,Lafayette,CA,62031002448,94549,37.888756,-122.11825
Fairmeadow Elementary School,public,KG_5,445,9,Palo Alto,CA,62961004585,94306,37.422222,-122.11843
Jane Lathrop Stanford Middle School,public,6_8,1137,9,Palo Alto,CA,62961004598,94306,37.422024,-122.11881
Edendale Middle School,public,6_8,657,1,San Lorenzo,CA,63471005851,94580,37.69527,-122.11892
John Muir Elementary School,public,KG_5,434,5,Martinez,CA,62403009579,94553,37.99892,-122.11935
Lorenzo Manor Elementary School,public,KG_5,569,2,Hayward,CA,63471005855,94541,37.674294,-122.11946
Santa Rita Elementary School,public,KG_6,524,6,Los Altos,CA,62265002789,94022,37.393932,-122.12132
San Lorenzo High School,public,9_12,1349,4,San Lorenzo,CA,63471005859,94580,37.686687,-122.12256
Ohlone Elementary School,public,KG_5,560,9,Palo Alto,CA,62961004592,94303,37.439594,-122.12383
Hesperian Elementary School,public,KG_5,551,2,San Lorenzo,CA,63471005852,94580,37.694016,-122.12531
John Swett Elementary School,public,KG_5,512,7,Martinez,CA,62403003614,94553,37.9823,-122.12533
Grass Valley Elementary School,public,KG_5,255,1,Oakland,CA,62805004269,94605,37.75301,-122.12585
Terman Middle School,public,6_8,668,8,Palo Alto,CA,62961011454,94306,37.404636,-122.12726
Bohannon Middle School,public,6_8,785,2,San Lorenzo,CA,63471007483,94580,37.6708,-122.12819
Gardner Bullis Elementary School,public,KG_6,302,9,Los Altos Hills,CA,62265011796,94022,37.382023,-122.12864
El Carmelo Elementary School,public,KG_5,360,8,Palo Alto,CA,62961004583,94306,37.4258,-122.13034
Henry M. Gunn High School,public,9_12,2006,9,Palo Alto,CA,62961004587,94306,37.399967,-122.13179
Juana Briones Elementary School,public,KG_5,307,7,Palo Alto,CA,62961004591,94306,37.408634,-122.1319
Alhambra Senior High School,public,9_12,1232,8,Martinez,CA,62403003612,94553,38.002495,-122.13371
Martinez Junior High School,public,6_8,966,5,Martinez,CA,62403003618,94553,38.0179,-122.13403
Costano Elementary School,public,KG_8,358,2,East Palo Alto,CA,63186004915,94303,37.477776,-122.13711
Duveneck Elementary School,public,KG_5,374,9,Palo Alto,CA,62961004586,94303,37.449944,-122.13482
David Starr Jordan Middle School,public,6_8,1050,8,Palo Alto,CA,62961010323,94303,37.439278,-122.13483
Grant Elementary School,public,KG_5,403,3,San Lorenzo,CA,63471007485,94580,37.68037,-122.13504
Jefferson Elementary School,public,KG_5,587,3,San Leandro,CA,63468005834,94578,37.71244,-122.13591
Barron Park Elementary School,public,KG_5,244,7,Palo Alto,CA,62961007802,94306,37.412613,-122.13642
Del Rey Elementary School,public,KG_5,520,3,San Lorenzo,CA,63471005850,94580,37.668636,-122.13657
Cesar Chavez Elementary School,public,6_8,121,2,East Palo Alto,CA,63186004916,94303,37.4736,-122.145
Arroyo High School,public,9_12,1819,7,San Lorenzo,CA,63471005845,94580,37.68081,-122.13836
Happy Valley Elementary School,public,KG_5,556,9,Lafayette,CA,62031002447,94549,37.90513,-122.14166
San Leandro High School,public,9_12,2652,5,San Leandro,CA,63468005842,94577,37.71713,-122.14256
Walter Hays Elementary School,public,KG_5,371,8,Palo Alto,CA,62961004588,94301,37.4424,-122.14356
Brentwood Academy,public,KG_5,386,1,East Palo Alto,CA,63186008946,94303,37.46227,-122.13456
Los Robles Magnet Academy,public,KG_8,257,1,East Palo Alto,CA,63186013130,94303,37.473618,-122.145
Ravenswood Comprehensive Middle,public,6_8,474,1,East Palo Alto,CA,63186014095,94303,37.473618,-122.14539
Monroe Elementary School,public,KG_5,392,4,San Leandro,CA,63468005838,94578,37.698154,-122.1462
Roosevelt Elementary School,public,KG_5,541,6,San Leandro,CA,63468005841,94577,37.736385,-122.14676
Bay Elementary School,public,KG_5,493,4,San Lorenzo,CA,63471005846,94580,37.67156,-122.14738
McKinley Elementary School,public,KG_5,507,3,San Leandro,CA,63468005837,94577,37.718876,-122.14747
Washington Manor Middle School,public,6_8,760,4,San Leandro,CA,63471008973,94579,37.68842,-122.14812
Bancroft Middle School,public,6_8,1055,3,San Leandro,CA,63468005831,94577,37.72917,-122.14863
Addison Elementary School,public,KG_5,402,8,Palo Alto,CA,62961004579,94301,37.446186,-122.15111
Howard Elementary School,public,KG_5,194,2,Oakland,CA,62805004249,94605,37.76215,-122.15135
Corvallis Elementary School,public,KG_5,430,2,San Leandro,CA,63471005848,94579,37.696617,-122.15235
Escondido Elementary School,public,KG_5,535,7,Stanford,CA,62961004584,94305,37.422104,-122.15521
Washington Elementary School,public,KG_5,398,4,San Leandro,CA,63468005843,94577,37.732426,-122.15676
Dayton Elementary School,public,KG_5,449,4,San Leandro,CA,63471007484,94579,37.687923,-122.15719
Lucille M. Nixon Elementary School,public,KG_5,445,8,Stanford,CA,62961004594,94305,37.41436,-122.1574
Palo Alto High School,public,9_12,2124,9,Palo Alto,CA,62961004596,94301,37.43786,-122.15779
Willow Oaks Elementary School,public,KG_8,416,2,Menlo Park,CA,63186004917,94025,37.46278,-122.1589
Lincoln High (Continuation) School,public,9_12,187,2,San Leandro,CA,63468005835,94579,37.708317,-122.15987
Madison Elementary School,public,KG_5,479,8,San Leandro,CA,63468007482,94579,37.69549,-122.16045
Belle Haven Elementary School,public,KG_8,368,1,Menlo Park,CA,63186004913,94025,37.476006,-122.16175
Reach Academy,public,KG_5,383,1,Oakland,CA,62805011556,94603,37.746513,-122.16182
Castlemont High,public,9_12,835,1,Oakland,CA,62805012992,94605,37.759537,-122.16291
Skyline High School,public,9_12,1592,4,Oakland,CA,62805004315,94619,37.797497,-122.1636
Parker Elementary School,public,KG_8,314,2,Oakland,CA,62805004306,94605,37.76564,-122.16559
Wilson Elementary School,public,KG_5,748,5,San Leandro,CA,63468005844,94577,37.715168,-122.16573
Alliance Academy,public,6_8,287,1,Oakland,CA,62805012027,94603,37.746372,-122.16609
Elmhurst Community Prep School,public,6_8,372,1,Oakland,CA,62805011961,94603,37.746372,-122.16609
Burckhalter Elementary School,public,KG_5,249,3,Oakland,CA,62805004245,94605,37.775578,-122.16679
John Muir Middle School,public,6_8,1003,4,San Leandro,CA,63468005839,94577,37.714146,-122.16817
Esperanza Elementary School,public,KG_5,345,3,Oakland,CA,62805004317,94603,37.7375,-122.17355
Fred T. Korematsu Discovery Academy,public,KG_5,295,2,Oakland,CA,62805011977,94603,37.7375,-122.17355
Carl B. Munck Elementary School,public,KG_5,228,2,Oakland,CA,62805004246,94619,37.794754,-122.17382
East Oakland Pride Elementary School,public,KG_5,337,1,Oakland,CA,62805012059,94621,37.759064,-122.17445
Madison Park Academy Tk-5,public,KG_5,277,1,Oakland,CA,62805004316,94603,37.728043,-122.17749
New Highland Academy,public,KG_5,356,1,Oakland,CA,62805004274,94621,37.752094,-122.17864
Rise Community School,public,KG_5,233,1,Oakland,CA,62805011559,94621,37.752094,-122.17864
Markham Elementary School,public,KG_5,330,1,Oakland,CA,62805004296,94605,37.765297,-122.17887
Madison Park Academy 6-12,public,6_12,774,3,Oakland,CA,62805004278,94603,37.727776,-122.17918
Frick Middle School,public,6_8,231,1,Oakland,CA,62805004263,94605,37.771515,-122.18349
Acorn Woodland Elementary School,public,KG_5,286,5,Oakland,CA,62805010730,94621,37.75286,-122.18605
Encompass Academy Elementary,public,KG_5,327,1,Oakland,CA,62805010686,94621,37.75286,-122.18605
Garfield Elementary School,public,KG_5,355,2,San Leandro,CA,63468005833,94577,37.70401,-122.18606
Redwood Heights Elementary School,public,KG_5,372,5,Oakland,CA,62805004310,94619,37.797077,-122.18626
Brookfield Elementary School,public,KG_5,232,2,Oakland,CA,62805004243,94603,37.73471,-122.189
Oakland Sol (School Of Language) Dual Language Middle,public,6_8,100,1,Oakland,CA,62805014086,94621,37.75927,-122.19075
Futures Elementary School,public,KG_5,312,1,Oakland,CA,62805012057,94621,37.761425,-122.19188
Community United Elementary School,public,KG_5,351,1,Oakland,CA,62805012058,94621,37.761425,-122.19188
Oak Knoll Elementary School,public,KG_5,651,10,Menlo Park,CA,62457003685,94025,37.430923,-122.19249
Roots International Academy,public,6_8,273,1,Oakland,CA,62805011907,94621,37.761974,-122.19337
Coliseum College Prep Academy,public,6_12,486,2,Oakland,CA,62805011920,94621,37.761974,-122.19337
Greenleaf Elementary School,public,KG_8,635,2,Oakland,CA,62805012055,94621,37.764385,-122.19484
Hillview Middle School,public,6_8,972,8,Menlo Park,CA,62457003683,94025,37.43894,-122.19623
Laurel Elementary School,public,KG_5,475,3,Oakland,CA,62805004287,94619,37.79307,-122.19664
Melrose Leadership Academy,public,KG_8,538,3,Oakland,CA,62805008679,94619,37.780327,-122.19779
Garfield Elementary School,public,KG_8,533,3,Menlo Park,CA,63213004965,94025,37.4701,-122.19947
La Entrada Middle School,public,4_8,745,8,Menlo Park,CA,62238002674,94025,37.428684,-122.20061
Montera Middle School,public,6_8,727,3,Oakland,CA,62805004303,94611,37.818787,-122.2016
Joaquin Miller Elementary School,public,KG_5,443,7,Oakland,CA,62805004280,94611,37.818546,-122.20177
Horace Mann Elementary School,public,KG_5,294,1,Oakland,CA,62805004277,94601,37.77355,-122.20245
Allendale Elementary School,public,KG_5,401,1,Oakland,CA,62805004238,94619,37.788643,-122.20516
Bridges Academy,public,KG_5,439,1,Oakland,CA,62805004301,94601,37.76776,-122.2065
Bret Harte Middle School,public,6_9,556,1,Oakland,CA,62805004242,94602,37.80058,-122.20652
Fremont High,public,9_12,771,1,Oakland,CA,62805013062,94601,37.7744,-122.20972
Sequoia Elementary School,public,KG_5,436,5,Oakland,CA,62805004314,94602,37.802315,-122.21141
Thornhill Elementary School,public,KG_5,410,9,Oakland,CA,62805004318,94611,37.836185,-122.21152
Corte Madera School,public,4_8,309,9,Portola Valley,CA,63147004881,94028,37.3686,-122.2128
Montclair Elementary School,public,KG_5,640,9,Oakland,CA,62805004302,94611,37.831093,-122.21281
Global Family School,public,KG_5,444,1,Oakland,CA,62805012053,94601,37.77935,-122.21325
Fruitvale Elementary School,public,KG_5,332,2,Oakland,CA,62805004264,94602,37.796227,-122.21407
Life Academy,public,6_12,463,3,Oakland,CA,62805008676,94601,37.784286,-122.21676
United For Success Academy,public,6_8,370,1,Oakland,CA,62805011909,94601,37.784286,-122.21676
Glenview Elementary School,public,KG_5,465,5,Oakland,CA,62805004266,94602,37.805477,-122.21877
Manzanita Seed,public,KG_5,391,3,Oakland,CA,62805011557,94601,37.792206,-122.2239
Manzanita Community,public,KG_5,412,1,Oakland,CA,62805004294,94601,37.792206,-122.2239
Urban Promise Academy,public,6_8,370,3,Oakland,CA,62805008680,94601,37.782326,-122.22487
Crocker Highlands Elementary School,public,KG_5,466,9,Oakland,CA,62805004253,94610,37.811363,-122.22738
Edna Brewer Middle School,public,6_8,808,6,Oakland,CA,62805004299,94610,37.803856,-122.22954
Think College Now School,public,KG_5,305,4,Oakland,CA,62805011294,94601,37.78008,-122.2305
International Community School,public,KG_5,293,2,Oakland,CA,62805008678,94601,37.78008,-122.2305
Kaiser Elementary School,public,KG_5,268,8,Oakland,CA,62805004273,94618,37.853077,-122.23181
Havens Elementary School,public,KG_5,439,9,Piedmont,CA,63033004730,94611,37.82571,-122.23263
Lincoln Middle School,public,6_8,872,9,Alameda,CA,60177000049,94501,37.752243,-122.23276
Hillcrest Elementary School,public,KG_8,388,9,Oakland,CA,62805004275,94618,37.840443,-122.23287
Piedmont High School,public,9_12,855,10,Piedmont,CA,63033004731,94611,37.823673,-122.2329
Piedmont Middle School,public,6_8,651,10,Piedmont,CA,63033004732,94611,37.82313,-122.23354
Edison Elementary School,public,KG_5,469,9,Alameda,CA,60177000044,94501,37.765083,-122.23421
Wildwood Elementary School,public,KG_5,296,9,Piedmont,CA,63033004733,94611,37.819702,-122.23495
Garfield Elementary School,public,KG_5,668,2,Oakland,CA,62805004265,94606,37.786682,-122.23578
Oakland High School,public,9_12,1642,3,Oakland,CA,62805004304,94610,37.80529,-122.23652
Bella Vista Elementary School,public,KG_5,469,3,Oakland,CA,62805004241,94610,37.800354,-122.23708
Roosevelt Middle School,public,6_8,568,3,Oakland,CA,62805004312,94606,37.789692,-122.23793
Frank Otis Elementary School,public,KG_5,640,8,Alameda,CA,60177000054,94501,37.75403,-122.23799
Amelia Earhart Elementary School,public,KG_5,651,10,Alameda,CA,60177000043,94502,37.74529,-122.23928
Chabot Elementary School,public,KG_5,580,9,Oakland,CA,62805004239,94618,37.850662,-122.24293
Cleveland Elementary School,public,KG_5,404,7,Oakland,CA,62805004251,94606,37.80437,-122.24405
John Muir Elementary School,public,KG_5,305,6,Berkeley,CA,60474008119,94705,37.857193,-122.24593
Beach Elementary School,public,KG_5,276,9,Piedmont,CA,63033004729,94611,37.82381,-122.24614
Alameda High School,public,9_12,1853,10,Alameda,CA,60177000041,94501,37.764294,-122.24807
Franklin Elementary School,public,KG_5,653,3,Oakland,CA,62805004261,94606,37.793793,-122.24829
Piedmont Avenue Elementary School,public,KG_5,329,2,Oakland,CA,62805004308,94611,37.82907,-122.24879
Henry Haight Elementary School,public,KG_5,544,6,Alameda,CA,60177000047,94501,37.769333,-122.25106
Emerson Elementary School,public,KG_5,320,7,Berkeley,CA,60474000436,94705,37.86149,-122.25111
Claremont Middle School,public,6_8,485,6,Oakland,CA,62805004250,94618,37.845753,-122.25184
Bay Farm,public,KG_8,610,9,Alameda,CA,60177000006,94502,37.739,-122.25195
Oakland Technical High School,public,9_12,2016,7,Oakland,CA,62805004305,94611,37.831726,-122.25413
La Escuelita Elementary School,public,KG_8,406,3,Oakland,CA,62805004284,94606,37.796005,-122.25727
Emerson Elementary School,public,KG_5,308,1,Oakland,CA,62805004260,94609,37.83463,-122.2573
Willard Middle School,public,6_8,667,9,Berkeley,CA,60474007267,94705,37.859665,-122.25862
Peralta Elementary School,public,KG_5,331,9,Oakland,CA,62805004307,94609,37.848965,-122.25881
Westlake Middle School,public,6_8,307,1,Oakland,CA,62805004323,94612,37.81459,-122.25991
Oakland International High School,public,9_12,369,1,Oakland,CA,62805012049,94609,37.833534,-122.26018
Franklin Elementary School,public,KG_5,335,8,Alameda,CA,60177004337,94501,37.769035,-122.2616
Will C. Wood Middle School,public,6_8,575,5,Alameda,CA,60177000057,94501,37.76303,-122.26192
Leconte Elementary School,public,KG_5,398,6,Berkeley,CA,60474000445,94705,37.857353,-122.26231
Cragmont Elementary School,public,KG_5,377,6,Berkeley,CA,60474006895,94708,37.892673,-122.26355
Sankofa Academy,public,KG_5,189,1,Oakland,CA,62805011558,94609,37.847126,-122.26443
Lincoln Elementary School,public,KG_5,750,8,Oakland,CA,62805004289,94607,37.799725,-122.26703
Oxford Elementary School,public,KG_5,281,6,Berkeley,CA,60474000448,94707,37.887794,-122.26827
Olinda Elementary School,public,KG_6,368,5,El Sobrante,CA,63255005049,94803,37.9566,-122.27095
Berkeley High School,public,9_12,3154,8,Berkeley,CA,60474000432,94704,37.86891,-122.2712
Berkeley Arts Magnet at Whittier School,public,KG_5,425,8,Berkeley,CA,60474000431,94709,37.87692,-122.27123
Maya Lin School,public,KG_5,427,6,Alameda,CA,60177013107,94501,37.772724,-122.27189
Washington Elementary School,public,KG_5,501,6,Berkeley,CA,60474000452,94704,37.86696,-122.27257
Malcolm X Elementary School,public,KG_5,557,6,Berkeley,CA,60474000447,94703,37.85244,-122.2736
Hoover Elementary School,public,KG_5,269,1,Oakland,CA,62805004276,94608,37.82295,-122.27445
Martin Luther King Middle School,public,6_8,989,8,Berkeley,CA,60474000443,94703,37.88111,-122.277
Kensington Elementary School,public,KG_6,475,7,Kensington,CA,63255005038,94708,37.913467,-122.2786
Mcclymonds High School,public,9_12,383,3,Oakland,CA,62805011555,94607,37.817863,-122.27863
Longfellow Arts And Technology Middle School,public,6_8,497,4,Berkeley,CA,60474000446,94703,37.85869,-122.28
Thousand Oaks Elementary School,public,KG_5,403,5,Berkeley,CA,60474000450,94707,37.89308,-122.2804
Alameda Science And Technology Institute,public,9_12,192,10,Alameda,CA,60177010547,94501,37.779884,-122.28052
Island High (Continuation) School,public,9_12,96,2,Alameda,CA,60177000048,94501,37.775723,-122.28124
Emery Secondary School,public,9_12,183,5,Oakland,CA,61263001426,94608,37.835667,-122.28124
Lafayette Elementary School,public,2_5,83,1,Oakland,CA,62805004285,94607,37.80839,-122.28272
West Oakland Middle School,public,6_8,199,1,Oakland,CA,62805012048,94607,37.80873,-122.28272
"Martin Luther King, Jr. Elementary School",public,KG_3,314,2,Oakland,CA,62805004297,94607,37.80568,-122.28298
Anna Yates Elementary School,public,KG_8,534,3,Emeryville,CA,61263001425,94608,37.836796,-122.284
William G. Paden Elementary School,public,KG_5,397,5,Alameda,CA,60177000003,94501,37.771564,-122.28446
Valley View Elementary School,public,KG_6,365,3,Richmond,CA,63255005064,94803,37.972412,-122.28505
De Anza Senior High School,public,9_12,1368,3,Richmond,CA,63255005018,94803,37.967735,-122.28509
Jefferson Elementary School,public,KG_5,401,8,Berkeley,CA,60474000441,94702,37.87892,-122.28521
Ruby Bridges Elementary School,public,KG_5,484,3,Alameda,CA,60177011549,94501,37.781834,-122.28614
Marin Elementary School,public,KG_5,504,9,Albany,CA,60186000062,94706,37.888557,-122.28817
Encinal Junior/Senior High,public,6_12,1261,7,Alameda,CA,60177000045,94501,37.772766,-122.289
Murphy Elementary School,public,KG_6,467,3,El Sobrante,CA,63255005046,94803,37.97567,-122.29091
Albany High School,public,9_12,1168,10,Albany,CA,60186000059,94706,37.89666,-122.29257
Harding Elementary School,public,KG_6,459,6,El Cerrito,CA,63255005033,94530,37.903076,-122.29459
Rosa Parks Environmental Science Magnet School,public,KG_5,449,7,Berkeley,CA,60474006865,94710,37.86565,-122.29471
El Cerrito Senior High School,public,9_12,1506,6,El Cerrito,CA,63255005022,94530,37.9066,-122.29484
Cornell Elementary School,public,KG_5,561,9,Albany,CA,60186000061,94706,37.889828,-122.29518
Albany Middle School,public,6_8,862,9,Albany,CA,60186000060,94706,37.89785,-122.2953
Sheldon Elementary School,public,KG_6,335,3,Richmond,CA,63255005060,94803,37.967274,-122.29674
Preparatory Literary Academy Of Cultural Excellence,public,KG_5,151,2,Oakland,CA,62805004309,94607,37.80847,-122.29806
Madera Elementary School,public,KG_6,474,7,El Cerrito,CA,63255005043,94530,37.928143,-122.29922
Fred T. Korematsu Middle School,public,7_8,696,5,El Cerrito,CA,63255005053,94530,37.91571,-122.29944
Ocean View Elementary School,public,KG_5,573,8,Albany,CA,60186007937,94706,37.88754,-122.30092
Fairmont Elementary School,public,KG_6,522,5,El Cerrito,CA,63255005029,94530,37.90686,-122.30439
Crespi Junior High School,public,7_8,449,2,El Sobrante,CA,63255005017,94803,37.986275,-122.30694
Tara Hills Elementary School,public,KG_6,448,3,San Pablo,CA,63255005063,94806,37.994,-122.31303
Mira Vista Elementary School,public,KG_8,566,3,Richmond,CA,63255005044,94805,37.940006,-122.31306
Stege Elementary School,public,KG_6,260,1,Richmond,CA,63255005061,94804,37.91986,-122.32306
Highland Elementary School,public,KG_6,456,4,Richmond,CA,63255010022,94806,37.971527,-122.32688
Riverside Elementary School,public,KG_6,390,3,Richmond,CA,63255005056,94806,37.952538,-122.3275
Wilson Elementary School,public,KG_6,395,2,Richmond,CA,63255005068,94805,37.940014,-122.32833
Kennedy High School,public,9_12,851,1,Richmond,CA,63255005037,94804,37.924175,-122.32929
King Elementary School,public,KG_6,470,1,Richmond,CA,63255005040,94804,37.929455,-122.33165
Montalvin Manor Elementary School,public,KG_6,498,5,San Pablo,CA,63255005045,94806,37.995888,-122.33551
Lovonya Dejean Middle School,public,7_8,467,1,Richmond,CA,63255011226,94805,37.934216,-122.33687
Helms Middle School,public,7_8,864,1,San Pablo,CA,63255005034,94806,37.96332,-122.34169
Ford Elementary School,public,KG_6,446,2,Richmond,CA,63255005030,94804,37.950615,-122.34194
Middle College High School,public,9_12,288,9,San Pablo,CA,63255009622,94806,37.968887,-122.34215
Grant Elementary School,public,KG_6,524,1,Richmond,CA,63255005032,94804,37.942917,-122.34572
Richmond High School,public,9_12,1567,2,Richmond,CA,63255005055,94804,37.95199,-122.34739
Bayview Elementary School,public,KG_6,512,1,San Pablo,CA,63255005009,94806,37.97423,-122.34753
Dover Elementary School,public,KG_6,657,1,San Pablo,CA,63255005020,94806,37.95851,-122.34897
Coronado Elementary School,public,KG_6,435,1,Richmond,CA,63255005015,94804,37.928005,-122.34944
Edward M. Downer Elementary School,public,KG_6,592,2,San Pablo,CA,63255009184,94806,37.951973,-122.35207
Lake Elementary School,public,KG_6,375,2,San Pablo,CA,63255005041,94806,37.971554,-122.3529
Cesar E. Chavez Elementary School,public,KG_6,556,1,Richmond,CA,63255007081,94801,37.94628,-122.35373
Nystrom Elementary School,public,KG_6,520,2,Richmond,CA,63255005047,94804,37.928154,-122.36004
Verde Elementary School,public,KG_6,344,1,Richmond,CA,63255005065,94801,37.96087,-122.36332
Lincoln Elementary School,public,KG_6,403,1,Richmond,CA,63255005042,94801,37.93194,-122.36374
Peres Elementary School,public,KG_6,549,2,Richmond,CA,63255005050,94801,37.942966,-122.3644
Washington Elementary School,public,KG_6,465,2,Richmond,CA,63255005067,94801,37.924763,-122.38059
